ZHONGXING-12            
1 39017U 12067A   26086.13597612 -.00000224  00000+0  00000+0 0  9999
2 39017   0.0294 108.7021 0003388 250.5025 321.8044  1.00271656 48683
